{
  "type": "FeatureCollection",
  "features": [
    {
      "type": "Feature",
      "properties": {
        "norad_id": 34010,
        "name": "COSMOS 2251 DEB",
        "group": "cosmos-2251-debris",
        "lat": 60.27841719670922,
        "lon": 84.31864590292608,
        "alt_km": 506.14576222248706,
        "timestamp": "2025-12-07T09:35:10.182557+00:00",
        "meta_object_name": "COSMOS 2251 DEB",
        "meta_object_id": "1993-036GV",
        "meta_epoch": "2025-12-06T22:00:08.825184",
        "meta_mean_motion": 15.17164737,
        "meta_eccentricity": 0.00045583,
        "meta_inclination": 73.9996,
        "meta_ra_of_asc_node": 295.5027,
        "meta_arg_of_pericenter": 59.7073,
        "meta_mean_anomaly": 300.4573,
        "meta_ephemeris_type": 0,
        "meta_classification_type": "U",
        "meta_norad_cat_id": 34010,
        "meta_element_set_no": 999,
        "meta_rev_at_epoch": 89197,
        "meta_bstar": 0.0061426669,
        "meta_mean_motion_dot": 0.00124104,
        "meta_mean_motion_ddot": 0,
        "tle_line1": "1 34010U 93036GV  25340.91676881  .00124104  00000+0  61427-2 0  9992",
        "tle_line2": "2 34010  73.9996 295.5027 0004558  59.7073 300.4573 15.17164737891974"
      },
      "geometry": {
        "type": "Point",
        "coordinates": [
          84.31864590292608,
          60.27841719670922
        ]
      }
    },
    {
      "type": "Feature",
      "properties": {
        "norad_id": 34011,
        "name": "COSMOS 2251 DEB",
        "group": "cosmos-2251-debris",
        "lat": -73.91728610537855,
        "lon": -103.7990574433938,
        "alt_km": 782.2920229284464,
        "timestamp": "2025-12-07T09:35:10.182567+00:00",
        "meta_object_name": "COSMOS 2251 DEB",
        "meta_object_id": "1993-036GW",
        "meta_epoch": "2025-12-06T00:41:21.098688",
        "meta_mean_motion": 14.41719901,
        "meta_eccentricity": 0.00352462,
        "meta_inclination": 74.0147,
        "meta_ra_of_asc_node": 342.6021,
        "meta_arg_of_pericenter": 68.4372,
        "meta_mean_anomaly": 292.0534,
        "meta_ephemeris_type": 0,
        "meta_classification_type": "U",
        "meta_norad_cat_id": 34011,
        "meta_element_set_no": 999,
        "meta_rev_at_epoch": 87819,
        "meta_bstar": 0.0013246525,
        "meta_mean_motion_dot": 4.329e-05,
        "meta_mean_motion_ddot": 0,
        "tle_line1": "1 34011U 93036GW  25340.02871642  .00004329  00000+0  13247-2 0  9990",
        "tle_line2": "2 34011  74.0147 342.6021 0035246  68.4372 292.0534 14.41719901878197"
      },
      "geometry": {
        "type": "Point",
        "coordinates": [
          -103.7990574433938,
          -73.91728610537855
        ]
      }
    },
    {
      "type": "Feature",
      "properties": {
        "norad_id": 34014,
        "name": "COSMOS 2251 DEB",
        "group": "cosmos-2251-debris",
        "lat": -31.900061882413556,
        "lon": -79.13432157732849,
        "alt_km": 663.9778329931878,
        "timestamp": "2025-12-07T09:35:10.182577+00:00",
        "meta_object_name": "COSMOS 2251 DEB",
        "meta_object_id": "1993-036GZ",
        "meta_epoch": "2025-12-06T22:34:53.671008",
        "meta_mean_motion": 14.73023036,
        "meta_eccentricity": 0.00368132,
        "meta_inclination": 74.0179,
        "meta_ra_of_asc_node": 292.0357,
        "meta_arg_of_pericenter": 73.2934,
        "meta_mean_anomaly": 343.3702,
        "meta_ephemeris_type": 0,
        "meta_classification_type": "U",
        "meta_norad_cat_id": 34014,
        "meta_element_set_no": 999,
        "meta_rev_at_epoch": 89218,
        "meta_bstar": 0.0016210486,
        "meta_mean_motion_dot": 0.00010514,
        "meta_mean_motion_ddot": 0,
        "tle_line1": "1 34014U 93036GZ  25340.94089897  .00010514  00000+0  16210-2 0  9993",
        "tle_line2": "2 34014  74.0179 292.0357 0036813  73.2934 343.3702 14.73023036892188"
      },
      "geometry": {
        "type": "Point",
        "coordinates": [
          -79.13432157732849,
          -31.900061882413556
        ]
      }
    },
    {
      "type": "Feature",
      "properties": {
        "norad_id": 34015,
        "name": "COSMOS 2251 DEB",
        "group": "cosmos-2251-debris",
        "lat": -27.637616363876532,
        "lon": 160.99709757110134,
        "alt_km": 691.6949193243172,
        "timestamp": "2025-12-07T09:35:10.182587+00:00",
        "meta_object_name": "COSMOS 2251 DEB",
        "meta_object_id": "1993-036HA",
        "meta_epoch": "2025-12-06T22:45:36.684000",
        "meta_mean_motion": 14.60135825,
        "meta_eccentricity": 0.0021148,
        "meta_inclination": 74.0229,
        "meta_ra_of_asc_node": 170.4864,
        "meta_arg_of_pericenter": 267.688,
        "meta_mean_anomaly": 213.2078,
        "meta_ephemeris_type": 0,
        "meta_classification_type": "U",
        "meta_norad_cat_id": 34015,
        "meta_element_set_no": 999,
        "meta_rev_at_epoch": 88446,
        "meta_bstar": 0.0019450058,
        "meta_mean_motion_dot": 9.374e-05,
        "meta_mean_motion_ddot": 0,
        "tle_line1": "1 34015U 93036HA  25340.94834125  .00009374  00000+0  19450-2 0  9997",
        "tle_line2": "2 34015  74.0229 170.4864 0021148 267.6880 213.2078 14.60135825884460"
      },
      "geometry": {
        "type": "Point",
        "coordinates": [
          160.99709757110134,
          -27.637616363876532
        ]
      }
    },
    {
      "type": "Feature",
      "properties": {
        "norad_id": 34018,
        "name": "COSMOS 2251 DEB",
        "group": "cosmos-2251-debris",
        "lat": -15.064789732435921,
        "lon": -74.38943554027124,
        "alt_km": 856.7919953358187,
        "timestamp": "2025-12-07T09:35:10.182597+00:00",
        "meta_object_name": "COSMOS 2251 DEB",
        "meta_object_id": "1993-036HD",
        "meta_epoch": "2025-12-06T19:20:41.774784",
        "meta_mean_motion": 13.81058576,
        "meta_eccentricity": 0.02640921,
        "meta_inclination": 73.8771,
        "meta_ra_of_asc_node": 102.1506,
        "meta_arg_of_pericenter": 139.1574,
        "meta_mean_anomaly": 344.8205,
        "meta_ephemeris_type": 0,
        "meta_classification_type": "U",
        "meta_norad_cat_id": 34018,
        "meta_element_set_no": 999,
        "meta_rev_at_epoch": 84575,
        "meta_bstar": 0.0010328944,
        "meta_mean_motion_dot": 1.4e-05,
        "meta_mean_motion_ddot": 0,
        "tle_line1": "1 34018U 93036HD  25340.80603906  .00001400  00000+0  10329-2 0  9994",
        "tle_line2": "2 34018  73.8771 102.1506 0264092 139.1574 344.8205 13.81058576845758"
      },
      "geometry": {
        "type": "Point",
        "coordinates": [
          -74.38943554027124,
          -15.064789732435921
        ]
      }
    },
    {
      "type": "Feature",
      "properties": {
        "norad_id": 34019,
        "name": "COSMOS 2251 DEB",
        "group": "cosmos-2251-debris",
        "lat": 22.459657424563602,
        "lon": 67.39393447631277,
        "alt_km": 812.818283143698,
        "timestamp": "2025-12-07T09:35:10.182607+00:00",
        "meta_object_name": "COSMOS 2251 DEB",
        "meta_object_id": "1993-036HE",
        "meta_epoch": "2025-12-06T22:19:02.254080",
        "meta_mean_motion": 14.33892591,
        "meta_eccentricity": 0.0062732,
        "meta_inclination": 73.9552,
        "meta_ra_of_asc_node": 61.4246,
        "meta_arg_of_pericenter": 243.487,
        "meta_mean_anomaly": 236.7959,
        "meta_ephemeris_type": 0,
        "meta_classification_type": "U",
        "meta_norad_cat_id": 34019,
        "meta_element_set_no": 999,
        "meta_rev_at_epoch": 87437,
        "meta_bstar": 0.001574573,
        "meta_mean_motion_dot": 4.46e-05,
        "meta_mean_motion_ddot": 0,
        "tle_line1": "1 34019U 93036HE  25340.92988720  .00004460  00000+0  15746-2 0  9995",
        "tle_line2": "2 34019  73.9552  61.4246 0062732 243.4870 236.7959 14.33892591874376"
      },
      "geometry": {
        "type": "Point",
        "coordinates": [
          67.39393447631277,
          22.459657424563602
        ]
      }
    },
    {
      "type": "Feature",
      "properties": {
        "norad_id": 34021,
        "name": "COSMOS 2251 DEB",
        "group": "cosmos-2251-debris",
        "lat": 5.17700420093557,
        "lon": -41.630943736728796,
        "alt_km": 732.8388839704503,
        "timestamp": "2025-12-07T09:35:10.182617+00:00",
        "meta_object_name": "COSMOS 2251 DEB",
        "meta_object_id": "1993-036HG",
        "meta_epoch": "2025-12-06T21:56:01.733280",
        "meta_mean_motion": 14.49913895,
        "meta_eccentricity": 0.0020816,
        "meta_inclination": 74.0354,
        "meta_ra_of_asc_node": 140.7665,
        "meta_arg_of_pericenter": 285.3682,
        "meta_mean_anomaly": 236.151,
        "meta_ephemeris_type": 0,
        "meta_classification_type": "U",
        "meta_norad_cat_id": 34021,
        "meta_element_set_no": 999,
        "meta_rev_at_epoch": 88545,
        "meta_bstar": 0.00081819384,
        "meta_mean_motion_dot": 3.145e-05,
        "meta_mean_motion_ddot": 0,
        "tle_line1": "1 34021U 93036HG  25340.91390895  .00003145  00000+0  81819-3 0  9991",
        "tle_line2": "2 34021  74.0354 140.7665 0020816 285.3682 236.1510 14.49913895885456"
      },
      "geometry": {
        "type": "Point",
        "coordinates": [
          -41.630943736728796,
          5.17700420093557
        ]
      }
    }
  ]
}